{
  "norad_id": 54651,
  "name": "ONEWEB-0584",
  "history": [
    {
      "epoch": "2026-03-28T22:10:59.756736Z",
      "apogee_km": 1178.7795397160617,
      "perigee_km": 1176.710436992371,
      "latitude_deg": -1.7191937981600812e-05,
      "longitude_deg": 100.89414268959914,
      "height_km": 1180.8696676894942,
      "semi_major_axis_km": 7555.8819883542155,
      "eccentricity": 0.00013692,
      "inclination_deg": 87.9169,
      "raan_deg": 259.9809,
      "arg_perigee_deg": 102.3996,
      "mean_anomaly_deg": 257.7291,
      "mean_motion_rev_day": 13.21828199
    },
    {
      "epoch": "2026-03-28T23:59:59.938656Z",
      "apogee_km": 1178.7818449888964,
      "perigee_km": 1176.710021888549,
      "latitude_deg": -4.032133589517517e-05,
      "longitude_deg": 73.55367389882176,
      "height_km": 1180.8700354998302,
      "semi_major_axis_km": 7555.882933438723,
      "eccentricity": 0.0001371,
      "inclination_deg": 87.9169,
      "raan_deg": 259.9658,
      "arg_perigee_deg": 102.3504,
      "mean_anomaly_deg": 257.7783,
      "mean_motion_rev_day": 13.21827951
    },
    {
      "epoch": "2026-03-29T23:37:02.357184Z",
      "apogee_km": 1178.82169129036,
      "perigee_km": 1176.6909293768467,
      "latitude_deg": -3.769418850334836e-05,
      "longitude_deg": 78.12696766754685,
      "height_km": 1180.89823809884,
      "semi_major_axis_km": 7555.893310333603,
      "eccentricity": 0.000141,
      "inclination_deg": 87.917,
      "raan_deg": 259.7691,
      "arg_perigee_deg": 102.9888,
      "mean_anomaly_deg": 257.1403,
      "mean_motion_rev_day": 13.21825228
    },
    {
      "epoch": "2026-03-30T05:04:02.854560Z",
      "apogee_km": 1178.8288156958697,
      "perigee_km": 1176.679315805486,
      "latitude_deg": 3.175041196516765e-05,
      "longitude_deg": -3.894331188161348,
      "height_km": 1180.900258624305,
      "semi_major_axis_km": 7555.891065750678,
      "eccentricity": 0.00014224,
      "inclination_deg": 87.917,
      "raan_deg": 259.7237,
      "arg_perigee_deg": 103.1085,
      "mean_anomaly_deg": 257.0208,
      "mean_motion_rev_day": 13.21825817
    },
    {
      "epoch": "2026-03-30T10:31:03.392544Z",
      "apogee_km": 1178.8351733436784,
      "perigee_km": 1176.6753970928703,
      "latitude_deg": 5.066775420279335e-05,
      "longitude_deg": -85.91580152521279,
      "height_km": 1180.9011133284682,
      "semi_major_axis_km": 7555.892285218274,
      "eccentricity": 0.00014292,
      "inclination_deg": 87.917,
      "raan_deg": 259.6783,
      "arg_perigee_deg": 103.026,
      "mean_anomaly_deg": 257.1034,
      "mean_motion_rev_day": 13.21825497
    },
    {
      "epoch": "2026-03-30T21:25:04.464192Z",
      "apogee_km": 1178.849891557502,
      "perigee_km": 1176.6639714431185,
      "latitude_deg": 9.356092888629846e-05,
      "longitude_deg": 110.04127603301674,
      "height_km": 1180.9157584405575,
      "semi_major_axis_km": 7555.89393150031,
      "eccentricity": 0.00014465,
      "inclination_deg": 87.917,
      "raan_deg": 259.5875,
      "arg_perigee_deg": 103.569,
      "mean_anomaly_deg": 256.5606,
      "mean_motion_rev_day": 13.21825065
    },
    {
      "epoch": "2026-03-31T21:02:06.805824Z",
      "apogee_km": 1178.8622960149787,
      "perigee_km": 1176.6605072207476,
      "latitude_deg": 4.760379712153871e-05,
      "longitude_deg": 114.61499017558431,
      "height_km": 1180.9409401676664,
      "semi_major_axis_km": 7555.898401617863,
      "eccentricity": 0.0001457,
      "inclination_deg": 87.917,
      "raan_deg": 259.3909,
      "arg_perigee_deg": 104.5803,
      "mean_anomaly_deg": 255.5493,
      "mean_motion_rev_day": 13.21823892
    },
    {
      "epoch": "2026-04-01T20:39:14.234688Z",
      "apogee_km": 1178.6613729947112,
      "perigee_km": 1177.203051636735,
      "latitude_deg": -7.932944480846323e-06,
      "longitude_deg": 119.16404901655508,
      "height_km": 1181.144547007928,
      "semi_major_axis_km": 7556.069212315723,
      "eccentricity": 9.65e-05,
      "inclination_deg": 87.9178,
      "raan_deg": 259.1909,
      "arg_perigee_deg": 115.0804,
      "mean_anomaly_deg": 245.043,
      "mean_motion_rev_day": 13.21779071
    },
    {
      "epoch": "2026-04-02T16:38:21.128640Z",
      "apogee_km": 1179.1347078308672,
      "perigee_km": 1176.9026194478283,
      "latitude_deg": -1.8172168783925003e-05,
      "longitude_deg": 178.4018595181356,
      "height_km": 1181.2383121623438,
      "semi_major_axis_km": 7556.155663639347,
      "eccentricity": 0.0001477,
      "inclination_deg": 87.9174,
      "raan_deg": 259.0282,
      "arg_perigee_deg": 106.5193,
      "mean_anomaly_deg": 253.6103,
      "mean_motion_rev_day": 13.21756387
    },
    {
      "epoch": "2026-04-02T22:05:23.089632Z",
      "apogee_km": 1179.161312018291,
      "perigee_km": 1176.924531637832,
      "latitude_deg": 1.9147490969123905e-05,
      "longitude_deg": 96.37444430922226,
      "height_km": 1181.27865673874,
      "semi_major_axis_km": 7556.179921828061,
      "eccentricity": 0.00014801,
      "inclination_deg": 87.9176,
      "raan_deg": 258.9828,
      "arg_perigee_deg": 107.3453,
      "mean_anomaly_deg": 252.7843,
      "mean_motion_rev_day": 13.21750022
    },
    {
      "epoch": "2026-04-03T18:04:31.358208Z",
      "apogee_km": 1179.3456776756357,
      "perigee_km": 1177.0228645169009,
      "latitude_deg": 7.050861693764363e-05,
      "longitude_deg": 155.6030131006304,
      "height_km": 1181.4475532095835,
      "semi_major_axis_km": 7556.321271096268,
      "eccentricity": 0.0001537,
      "inclination_deg": 87.9177,
      "raan_deg": 258.8166,
      "arg_perigee_deg": 108.115,
      "mean_anomaly_deg": 252.0152,
      "mean_motion_rev_day": 13.21712935
    },
    {
      "epoch": "2026-04-04T04:58:35.832288Z",
      "apogee_km": 1179.3517478488438,
      "perigee_km": 1177.046309726462,
      "latitude_deg": 2.9855148339457784e-05,
      "longitude_deg": -8.45432871900372,
      "height_km": 1181.445954436703,
      "semi_major_axis_km": 7556.336028787653,
      "eccentricity": 0.00015255,
      "inclination_deg": 87.9174,
      "raan_deg": 258.7256,
      "arg_perigee_deg": 107.4021,
      "mean_anomaly_deg": 252.728,
      "mean_motion_rev_day": 13.21709063
    },
    {
      "epoch": "2026-04-05T11:51:49.362048Z",
      "apogee_km": 1179.4384988356605,
      "perigee_km": 1177.0277145168266,
      "latitude_deg": 3.963223984874184e-06,
      "longitude_deg": -113.28649307281941,
      "height_km": 1181.4589907714055,
      "semi_major_axis_km": 7556.370106676243,
      "eccentricity": 0.00015952,
      "inclination_deg": 87.9181,
      "raan_deg": 258.4683,
      "arg_perigee_deg": 105.5853,
      "mean_anomaly_deg": 254.5457,
      "mean_motion_rev_day": 13.21700122
    },
    {
      "epoch": "2026-04-07T11:06:10.091520Z",
      "apogee_km": 1179.4672224387296,
      "perigee_km": 1177.0053560210981,
      "latitude_deg": -7.055471113124763e-06,
      "longitude_deg": -104.2059115671494,
      "height_km": 1181.4834581741807,
      "semi_major_axis_km": 7556.373289229913,
      "eccentricity": 0.0001629,
      "inclination_deg": 87.9184,
      "raan_deg": 258.0753,
      "arg_perigee_deg": 106.2854,
      "mean_anomaly_deg": 253.8459,
      "mean_motion_rev_day": 13.21699287
    },
    {
      "epoch": "2026-04-07T20:11:13.794432Z",
      "apogee_km": 1179.4806443244543,
      "perigee_km": 1176.971931712832,
      "latitude_deg": 7.492703649200948e-05,
      "longitude_deg": 119.08008000089274,
      "height_km": 1181.4851161144866,
      "semi_major_axis_km": 7556.363288018642,
      "eccentricity": 0.000166,
      "inclination_deg": 87.9181,
      "raan_deg": 257.9998,
      "arg_perigee_deg": 106.5305,
      "mean_anomaly_deg": 253.6012,
      "mean_motion_rev_day": 13.21701911
    },
    {
      "epoch": "2026-04-08T16:10:20.570016Z",
      "apogee_km": 1179.35038780172,
      "perigee_km": 1176.9820912403902,
      "latitude_deg": 3.293343882463763e-05,
      "longitude_deg": 178.3149807017189,
      "height_km": 1181.413666228736,
      "semi_major_axis_km": 7556.303239521055,
      "eccentricity": 0.00015671,
      "inclination_deg": 87.9184,
      "raan_deg": 257.8337,
      "arg_perigee_deg": 106.9542,
      "mean_anomaly_deg": 253.1764,
      "mean_motion_rev_day": 13.21717666
    },
    {
      "epoch": "2026-04-09T19:25:26.256288Z",
      "apogee_km": 1179.0829089682702,
      "perigee_km": 1176.9112760300868,
      "latitude_deg": -4.061092562836267e-05,
      "longitude_deg": 128.19169927951512,
      "height_km": 1180.9402102374956,
      "semi_major_axis_km": 7556.134092499178,
      "eccentricity": 0.0001437,
      "inclination_deg": 87.9199,
      "raan_deg": 257.6033,
      "arg_perigee_deg": 92.1566,
      "mean_anomaly_deg": 267.9732,
      "mean_motion_rev_day": 13.21762047
    },
    {
      "epoch": "2026-04-10T04:30:27.080352Z",
      "apogee_km": 1179.4115335306678,
      "perigee_km": 1176.4302153357312,
      "latitude_deg": 6.283138158566942e-05,
      "longitude_deg": -8.50738022973317,
      "height_km": 1181.1221335151247,
      "semi_major_axis_km": 7556.057874433199,
      "eccentricity": 0.00019728,
      "inclination_deg": 87.9191,
      "raan_deg": 257.5307,
      "arg_perigee_deg": 101.6029,
      "mean_anomaly_deg": 258.5327,
      "mean_motion_rev_day": 13.21782046
    },
    {
      "epoch": "2026-04-11T20:28:31.531872Z",
      "apogee_km": 1179.010104705466,
      "perigee_km": 1176.507592000491,
      "latitude_deg": 7.149051572971313e-05,
      "longitude_deg": 110.00014535988196,
      "height_km": 1180.9839378284544,
      "semi_major_axis_km": 7555.895848352978,
      "eccentricity": 0.0001656,
      "inclination_deg": 87.9184,
      "raan_deg": 257.1982,
      "arg_perigee_deg": 104.9596,
      "mean_anomaly_deg": 255.1722,
      "mean_motion_rev_day": 13.21824562
    }
  ]
}